{
  "norad_id": 66507,
  "name": "STARLINK-34767",
  "history": [
    {
      "epoch": "2026-03-28T18:23:40.425504Z",
      "apogee_km": 484.3851787771773,
      "perigee_km": 481.5183414496523,
      "latitude_deg": -2.863209158920996e-05,
      "longitude_deg": 141.10265614864,
      "height_km": 482.7847810302888,
      "semi_major_axis_km": 6861.0887601134145,
      "eccentricity": 0.00020892,
      "inclination_deg": 43.0015,
      "raan_deg": 243.2033,
      "arg_perigee_deg": 267.7761,
      "mean_anomaly_deg": 92.2851,
      "mean_motion_rev_day": 15.27612507
    }
  ]
}