{"fetched_at":"2026-03-29T16:36:15Z","count":15609,"tles":[{"name":"STARLINK-34767","line1":"1 66507U 25263Y   26087.76644011  .00030450  00000+0  11104-2 0  9994","line2":"2 66507  43.0015 243.2033 0002089 267.7761  92.2851 15.27612507 21816","category":"Starlink"}]}